{"type":"FeatureCollection","features":[{"id":"0","type":"Feature","properties":{"id":"high-01","zone_id":"high-01","severity":"high","severity_rank":3,"depth_band":">3 m","area_m2":5133937.0,"rep_lon":-9.110047,"rep_lat":38.72624,"buildings_within":944,"buildings_catchment":3433,"building_area_m2":577271.6},"geometry":{"type":"Polygon","coordinates":[[[-9.178557,38.701167],[-9.177856,38.700768],[-9.177694,38.700747],[-9.177524,38.700814],[-9.177445,38.700949],[-9.177435,38.701796],[-9.177318,38.702154],[-9.17686,38.702638],[-9.176307,38.702872],[-9.175837,38.702928],[-9.174693,38.702905],[-9.173736,38.702559],[-9.173123,38.70283],[-9.172665,38.702921],[-9.169982,38.702932],[-9.16982,38.703004],[-9.16936,38.703472],[-9.168943,38.703667],[-9.168337,38.703762],[-9.165789,38.703771],[-9.165182,38.704312],[-9.164488,38.704569],[-9.163183,38.704589],[-9.162486,38.704443],[-9.161831,38.704588],[-9.160789,38.704604],[-9.160055,38.705219],[-9.159641,38.705372],[-9.159032,38.705472],[-9.15874,38.705804],[-9.158388,38.706052],[-9.157974,38.706205],[-9.157365,38.706305],[-9.156977,38.706721],[-9.156586,38.706948],[-9.155984,38.707089],[-9.153289,38.707104],[-9.152682,38.707645],[-9.151988,38.707903],[-9.150683,38.707923],[-9.150014,38.707776],[-9.14917,38.707928],[-9.147496,38.707928],[-9.147039,38.707875],[-9.146484,38.707645],[-9.146158,38.707363],[-9.145957,38.707028],[-9.145884,38.706443],[-9.145806,38.706328],[-9.145631,38.706263],[-9.145009,38.706263],[-9.14482,38.706338],[-9.144349,38.706812],[-9.143654,38.707069],[-9.13917,38.707095],[-9.138383,38.706983],[-9.138202,38.707072],[-9.1378,38.707562],[-9.137432,38.707776],[-9.137127,38.707875],[-9.13667,38.707928],[-9.134996,38.707928],[-9.134217,38.707816],[-9.134035,38.707906],[-9.133633,38.708396],[-9.132974,38.708705],[-9.132651,38.708756],[-9.13167,38.708762],[-9.131053,38.708684],[-9.130877,38.708738],[-9.130782,38.708866],[-9.130705,38.709538],[-9.130509,38.709863],[-9.1303,38.710062],[-9.129789,38.71033],[-9.12901,38.710486],[-9.128643,38.710888],[-9.128253,38.711133],[-9.127916,38.711629],[-9.127567,38.711879],[-9.127141,38.712039],[-9.126556,38.712126],[-9.126143,38.712555],[-9.125753,38.712782],[-9.124844,38.712986],[-9.124477,38.713388],[-9.124086,38.713633],[-9.12374,38.714138],[-9.123253,38.714466],[-9.123083,38.714766],[-9.12281,38.715055],[-9.122289,38.71533],[-9.12151,38.715486],[-9.121143,38.715888],[-9.120753,38.716133],[-9.120416,38.716629],[-9.119992,38.716939],[-9.119872,38.717871],[-9.119582,38.718296],[-9.119132,38.718644],[-9.119081,38.719407],[-9.118843,38.719863],[-9.118389,38.720219],[-9.117523,38.720486],[-9.117449,38.720599],[-9.117376,38.721194],[-9.117168,38.721539],[-9.116599,38.721943],[-9.115856,38.722153],[-9.115782,38.722266],[-9.11571,38.722861],[-9.115502,38.723205],[-9.115183,38.723479],[-9.114509,38.723742],[-9.114386,38.723859],[-9.114397,38.724031],[-9.114824,38.724522],[-9.114944,38.724997],[-9.114935,38.726796],[-9.114818,38.727154],[-9.114574,38.727471],[-9.114222,38.727719],[-9.113794,38.727875],[-9.113337,38.727928],[-9.112349,38.727923],[-9.111735,38.727776],[-9.111356,38.727555],[-9.111005,38.727197],[-9.11071,38.727174],[-9.11031,38.727555],[-9.10992,38.7278],[-9.109668,38.728205],[-9.109145,38.728624],[-9.109043,38.729528],[-9.108917,38.729766],[-9.108644,38.730055],[-9.108265,38.730276],[-9.107961,38.730375],[-9.106856,38.730429],[-9.106648,38.730523],[-9.106596,38.730644],[-9.106602,38.731796],[-9.106424,38.732256],[-9.10624,38.732471],[-9.105901,38.732712],[-9.105005,38.733003],[-9.104911,38.733585],[-9.104757,38.733923],[-9.104477,38.734221],[-9.104087,38.734466],[-9.103797,38.734935],[-9.103797,38.735065],[-9.103991,38.735356],[-9.104103,38.735715],[-9.104081,38.737741],[-9.103835,38.738205],[-9.103254,38.738633],[-9.103002,38.739039],[-9.102478,38.739458],[-9.102435,38.740129],[-9.102324,38.740478],[-9.102083,38.740796],[-9.101623,38.741165],[-9.101535,38.742072],[-9.101611,38.742497],[-9.101611,38.744169],[-9.101485,38.744654],[-9.101241,38.744971],[-9.100754,38.7453],[-9.100584,38.745599],[-9.100311,38.745888],[-9.09979,38.746163],[-9.099011,38.746319],[-9.098644,38.746721],[-9.098254,38.746966],[-9.098002,38.747372],[-9.097457,38.747832],[-9.097437,38.750118],[-9.097118,38.750833],[-9.097436,38.751538],[-9.097436,38.752629],[-9.097177,38.753196],[-9.096633,38.753644],[-9.096602,38.754296],[-9.096486,38.754654],[-9.09625,38.754963],[-9.096016,38.755145],[-9.09561,38.755334],[-9.095165,38.755421],[-9.094163,38.755428],[-9.093706,38.755375],[-9.093278,38.755219],[-9.092917,38.754963],[-9.092676,38.754644],[-9.092564,38.754296],[-9.092563,38.752382],[-9.092749,38.751901],[-9.093023,38.751612],[-9.093422,38.751358],[-9.093714,38.750855],[-9.093396,38.750118],[-9.093396,38.747382],[-9.093461,38.747129],[-9.093657,38.746804],[-9.094217,38.746313],[-9.094255,38.743082],[-9.094498,38.742628],[-9.095034,38.742189],[-9.095086,38.741426],[-9.095331,38.740961],[-9.095903,38.740543],[-9.096157,38.740137],[-9.096473,38.739862],[-9.096877,38.73967],[-9.097394,38.739561],[-9.097532,38.739448],[-9.097563,38.738215],[-9.097628,38.737962],[-9.097917,38.737537],[-9.098367,38.737189],[-9.098398,38.736538],[-9.098576,38.736077],[-9.099217,38.73548],[-9.09923,38.734049],[-9.09941,38.733577],[-9.09969,38.733279],[-9.100089,38.733024],[-9.100426,38.732529],[-9.100841,38.732228],[-9.100898,38.731538],[-9.101015,38.731179],[-9.10126,38.730862],[-9.101755,38.730524],[-9.101916,38.730234],[-9.10219,38.729945],[-9.102445,38.729781],[-9.102859,38.729628],[-9.104008,38.729567],[-9.104194,38.729466],[-9.10423,38.727382],[-9.10441,38.72691],[-9.10469,38.726612],[-9.10507,38.726376],[-9.105332,38.725961],[-9.105855,38.725542],[-9.105919,38.724759],[-9.106165,38.724295],[-9.106737,38.723876],[-9.106991,38.72347],[-9.107306,38.723195],[-9.107711,38.723003],[-9.10832,38.722839],[-9.108388,38.722715],[-9.108422,38.722248],[-9.108577,38.72191],[-9.108856,38.721612],[-9.109256,38.721357],[-9.109584,38.720871],[-9.109817,38.720688],[-9.110211,38.720503],[-9.110968,38.720362],[-9.11126,38.720029],[-9.111674,38.719728],[-9.111732,38.718204],[-9.111849,38.717846],[-9.112084,38.717537],[-9.112581,38.717218],[-9.11349,38.717014],[-9.113857,38.716612],[-9.114256,38.716357],[-9.114593,38.715862],[-9.115089,38.715524],[-9.11525,38.715234],[-9.115523,38.714945],[-9.115914,38.714718],[-9.116653,38.714506],[-9.116843,38.713689],[-9.116999,38.713461],[-9.117307,38.713195],[-9.117581,38.713052],[-9.118012,38.712931],[-9.118964,38.712904],[-9.119139,38.712839],[-9.119218,38.712724],[-9.119256,38.712248],[-9.11941,38.71191],[-9.11969,38.711612],[-9.120089,38.711357],[-9.120427,38.710862],[-9.121044,38.710503],[-9.121823,38.710348],[-9.12219,38.709945],[-9.122571,38.709709],[-9.122824,38.709304],[-9.123151,38.709021],[-9.123846,38.708764],[-9.125105,38.708709],[-9.125651,38.708188],[-9.126193,38.707961],[-9.126778,38.707874],[-9.1272,38.707437],[-9.127724,38.707166],[-9.12833,38.707072],[-9.129317,38.707077],[-9.129757,38.70715],[-9.129922,38.707115],[-9.130051,38.70697],[-9.130124,38.706306],[-9.130324,38.70597],[-9.130651,38.705688],[-9.131193,38.705461],[-9.131516,38.705411],[-9.132504,38.705405],[-9.133322,38.705509],[-9.133462,38.705431],[-9.133665,38.705128],[-9.133973,38.704862],[-9.134247,38.704718],[-9.134693,38.704595],[-9.13667,38.704572],[-9.137488,38.704676],[-9.137628,38.704598],[-9.138023,38.704112],[-9.138414,38.703885],[-9.139016,38.703744],[-9.140885,38.703728],[-9.141484,38.703188],[-9.141878,38.703003],[-9.142193,38.702928],[-9.150827,38.702904],[-9.151008,38.702833],[-9.151484,38.702355],[-9.15204,38.702125],[-9.152497,38.702072],[-9.155023,38.702067],[-9.155175,38.702],[-9.155533,38.701604],[-9.156044,38.701337],[-9.156502,38.701245],[-9.157605,38.701209],[-9.158151,38.700688],[-9.158693,38.700461],[-9.159278,38.700374],[-9.15969,38.699945],[-9.160081,38.699718],[-9.160683,38.699577],[-9.162551,38.699561],[-9.163151,38.699021],[-9.163544,38.698837],[-9.16386,38.698762],[-9.170827,38.698737],[-9.171008,38.698667],[-9.171484,38.698188],[-9.172179,38.697931],[-9.175165,38.697912],[-9.175765,38.698057],[-9.176249,38.698371],[-9.176577,38.698915],[-9.176641,38.699704],[-9.177099,38.700044],[-9.177317,38.700085],[-9.177469,38.700025],[-9.177555,38.699885],[-9.177587,38.698093],[-9.177682,38.697846],[-9.177927,38.697529],[-9.178402,38.697223],[-9.17886,38.697095],[-9.180151,38.697077],[-9.180609,38.697166],[-9.1809,38.697288],[-9.18124,38.697529],[-9.181423,38.697744],[-9.181577,38.698082],[-9.18161,38.700003],[-9.18149,38.700478],[-9.181133,38.700896],[-9.180765,38.70111],[-9.180461,38.701209],[-9.179163,38.701262],[-9.178557,38.701167]]]}},{"id":"1","type":"Feature","properties":{"id":"high-02","zone_id":"high-02","severity":"high","severity_rank":3,"depth_band":">3 m","area_m2":1815997.1,"rep_lon":-9.096059,"rep_lat":38.792084,"buildings_within":230,"buildings_catchment":413,"building_area_m2":151095.5},"geometry":{"type":"Polygon","coordinates":[[[-9.109876,38.797967],[-9.110417,38.798371],[-9.110707,38.798795],[-9.110779,38.799164],[-9.110772,38.800118],[-9.110653,38.800488],[-9.110408,38.800804],[-9.109933,38.80111],[-9.109474,38.801238],[-9.105837,38.801262],[-9.105223,38.801167],[-9.104805,38.800972],[-9.104489,38.800696],[-9.104254,38.800251],[-9.104199,38.799734],[-9.104093,38.799633],[-9.103933,38.799595],[-9.100791,38.799604],[-9.100195,38.800138],[-9.099628,38.800375],[-9.09833,38.800428],[-9.097499,38.800329],[-9.09685,38.800979],[-9.096444,38.801167],[-9.095998,38.801255],[-9.091502,38.801255],[-9.090901,38.80111],[-9.090416,38.800796],[-9.090175,38.800478],[-9.090063,38.800129],[-9.090062,38.798215],[-9.090248,38.797734],[-9.090522,38.797445],[-9.090822,38.797246],[-9.090886,38.797125],[-9.090888,38.793336],[-9.091008,38.792856],[-9.091259,38.792529],[-9.091734,38.792224],[-9.092335,38.792079],[-9.09341,38.792053],[-9.093759,38.791696],[-9.094099,38.791454],[-9.094942,38.791204],[-9.095049,38.791071],[-9.095063,38.790704],[-9.095175,38.790356],[-9.095557,38.789877],[-9.095529,38.78971],[-9.09536,38.789604],[-9.093845,38.789569],[-9.093401,38.789443],[-9.093022,38.789221],[-9.092749,38.788933],[-9.092587,38.788585],[-9.092555,38.787503],[-9.092622,38.787139],[-9.092823,38.786804],[-9.093402,38.786377],[-9.093664,38.785961],[-9.094199,38.785523],[-9.094251,38.784759],[-9.094415,38.784401],[-9.094689,38.784112],[-9.095069,38.783877],[-9.095323,38.78347],[-9.09565,38.783188],[-9.096043,38.783003],[-9.096502,38.782912],[-9.098641,38.782928],[-9.099087,38.783052],[-9.099468,38.783271],[-9.099751,38.783567],[-9.099878,38.783806],[-9.099945,38.784169],[-9.099945,38.785003],[-9.099878,38.785361],[-9.099669,38.785705],[-9.099147,38.786099],[-9.099073,38.786239],[-9.099129,38.786384],[-9.099478,38.786612],[-9.099751,38.786901],[-9.099878,38.787139],[-9.099945,38.787503],[-9.099945,38.788336],[-9.099874,38.788705],[-9.099669,38.789039],[-9.099147,38.789432],[-9.099073,38.789572],[-9.099129,38.789718],[-9.099478,38.789945],[-9.099751,38.790234],[-9.099878,38.790472],[-9.099945,38.790836],[-9.099945,38.791669],[-9.099874,38.792038],[-9.09967,38.792372],[-9.099118,38.792853],[-9.099112,38.79377],[-9.099171,38.793907],[-9.099575,38.794196],[-9.099827,38.7945],[-9.099979,38.794567],[-9.102903,38.794609],[-9.105004,38.794572],[-9.105754,38.794718],[-9.106241,38.795029],[-9.10658,38.795525],[-9.106978,38.795779],[-9.107345,38.796181],[-9.108123,38.796337],[-9.108645,38.796612],[-9.108918,38.796901],[-9.109098,38.79721],[-9.10967,38.797628],[-9.109876,38.797967]]]}},{"id":"2","type":"Feature","properties":{"id":"high-03","zone_id":"high-03","severity":"high","severity_rank":3,"depth_band":">3 m","area_m2":819860.5,"rep_lon":-9.20348,"rep_lat":38.695428,"buildings_within":204,"buildings_catchment":484,"building_area_m2":123623.5},"geometry":{"type":"Polygon","coordinates":[[[-9.213807,38.694539],[-9.213157,38.694668],[-9.212682,38.695145],[-9.211988,38.695403],[-9.208454,38.695445],[-9.208289,38.695588],[-9.208247,38.696074],[-9.20809,38.696423],[-9.20781,38.696721],[-9.207555,38.696885],[-9.206831,38.697088],[-9.205071,38.697133],[-9.204945,38.697298],[-9.204936,38.698451],[-9.204756,38.698923],[-9.204573,38.699138],[-9.204233,38.699379],[-9.203807,38.699539],[-9.203484,38.699589],[-9.201516,38.699589],[-9.200902,38.699443],[-9.200523,38.699221],[-9.200244,38.698923],[-9.200089,38.698585],[-9.199996,38.698003],[-9.199378,38.69783],[-9.198984,38.697645],[-9.198666,38.697372],[-9.198408,38.697026],[-9.198229,38.696979],[-9.197651,38.697089],[-9.19667,38.697095],[-9.196057,38.697001],[-9.195767,38.696879],[-9.195418,38.696629],[-9.195177,38.696311],[-9.195064,38.695951],[-9.195064,38.694882],[-9.195177,38.694522],[-9.195524,38.694112],[-9.196057,38.693833],[-9.196516,38.693744],[-9.197665,38.693745],[-9.198122,38.693837],[-9.198764,38.694108],[-9.199378,38.693837],[-9.199835,38.693745],[-9.202097,38.693775],[-9.203356,38.693734],[-9.203508,38.693667],[-9.203857,38.693279],[-9.204238,38.693043],[-9.204417,38.692734],[-9.20469,38.692445],[-9.205224,38.692166],[-9.20583,38.692072],[-9.207931,38.692109],[-9.210023,38.692067],[-9.210175,38.692],[-9.210427,38.691696],[-9.210767,38.691454],[-9.211193,38.691295],[-9.211516,38.691244],[-9.213337,38.691238],[-9.213794,38.691291],[-9.21436,38.691528],[-9.214818,38.692012],[-9.214943,38.692503],[-9.214936,38.693451],[-9.214818,38.693821],[-9.214573,38.694138],[-9.214233,38.694379],[-9.213807,38.694539]]]}},{"id":"3","type":"Feature","properties":{"id":"high-04","zone_id":"high-04","severity":"high","severity_rank":3,"depth_band":">3 m","area_m2":737723.9,"rep_lon":-9.229536,"rep_lat":38.695425,"buildings_within":80,"buildings_catchment":204,"building_area_m2":74374.8},"geometry":{"type":"Polygon","coordinates":[[[-9.236541,38.695467],[-9.237176,38.69597],[-9.237434,38.696538],[-9.237413,38.697741],[-9.23725,38.698099],[-9.236967,38.698396],[-9.236443,38.698667],[-9.235722,38.698793],[-9.235193,38.699305],[-9.234627,38.699542],[-9.234163,38.699595],[-9.232931,38.699558],[-9.23167,38.699595],[-9.231206,38.699542],[-9.230778,38.699385],[-9.230523,38.699221],[-9.23025,38.698933],[-9.230081,38.698633],[-9.22969,38.698388],[-9.229285,38.697963],[-9.228169,38.697921],[-9.227724,38.697834],[-9.227307,38.697638],[-9.226755,38.697162],[-9.226493,38.697197],[-9.226143,38.697555],[-9.225888,38.697719],[-9.225307,38.697905],[-9.22386,38.697905],[-9.223544,38.69783],[-9.22314,38.697638],[-9.22275,38.697266],[-9.222587,38.696907],[-9.222535,38.694734],[-9.222325,38.694599],[-9.221502,38.694588],[-9.221057,38.694501],[-9.220651,38.694312],[-9.220332,38.694039],[-9.220129,38.693705],[-9.220064,38.693451],[-9.220057,38.692497],[-9.220124,38.692139],[-9.220251,38.691901],[-9.220524,38.691612],[-9.220778,38.691448],[-9.221206,38.691291],[-9.221663,38.691238],[-9.22333,38.691238],[-9.223794,38.691291],[-9.224233,38.691454],[-9.224675,38.691804],[-9.224876,38.692139],[-9.225013,38.692839],[-9.2259,38.693121],[-9.22624,38.693362],[-9.226588,38.69372],[-9.228337,38.693738],[-9.228807,38.693795],[-9.22936,38.694028],[-9.229888,38.694541],[-9.230609,38.694666],[-9.231208,38.694939],[-9.231373,38.69492],[-9.231891,38.694666],[-9.232335,38.694579],[-9.235321,38.694597],[-9.235765,38.694723],[-9.236133,38.694937],[-9.236342,38.695137],[-9.236541,38.695467]]]}},{"id":"4","type":"Feature","properties":{"id":"high-05","zone_id":"high-05","severity":"high","severity_rank":3,"depth_band":">3 m","area_m2":114358.7,"rep_lon":-9.185417,"rep_lat":38.697917,"buildings_within":11,"buildings_catchment":70,"building_area_m2":23119.2},"geometry":{"type":"Polygon","coordinates":[[[-9.184539,38.699542],[-9.184235,38.699443],[-9.183867,38.699229],[-9.183584,38.698933],[-9.183458,38.698694],[-9.18339,38.698336],[-9.183397,38.697382],[-9.183577,38.69691],[-9.183984,38.696521],[-9.184679,38.696264],[-9.185984,38.696244],[-9.186586,38.696385],[-9.187082,38.696704],[-9.187411,38.697248],[-9.187436,38.698451],[-9.187256,38.698923],[-9.186849,38.699312],[-9.186294,38.699542],[-9.18583,38.699595],[-9.184539,38.699542]]]}},{"id":"5","type":"Feature","properties":{"id":"high-06","zone_id":"high-06","severity":"high","severity_rank":3,"depth_band":">3 m","area_m2":114334.8,"rep_lon":-9.094583,"rep_lat":38.762083,"buildings_within":23,"buildings_catchment":83,"building_area_m2":32926.1},"geometry":{"type":"Polygon","coordinates":[[[-9.093706,38.763709],[-9.093401,38.76361],[-9.093032,38.763396],[-9.092823,38.763196],[-9.092623,38.762861],[-9.092555,38.762503],[-9.092563,38.761549],[-9.092743,38.761077],[-9.09315,38.760688],[-9.093845,38.760431],[-9.095151,38.760411],[-9.095753,38.760552],[-9.09625,38.760871],[-9.096579,38.761415],[-9.096604,38.762618],[-9.096424,38.76309],[-9.096028,38.763472],[-9.095461,38.763709],[-9.094996,38.763762],[-9.093706,38.763709]]]}},{"id":"6","type":"Feature","properties":{"id":"medium-01","zone_id":"medium-01","severity":"medium","severity_rank":2,"depth_band":"1\u20133 m","area_m2":783724.6,"rep_lon":-9.169581,"rep_lat":38.702491,"buildings_within":168,"buildings_catchment":891,"building_area_m2":133393.3},"geometry":{"type":"Polygon","coordinates":[[[-9.176615,38.703221],[-9.176415,38.703284],[-9.176329,38.703461],[-9.176641,38.703822],[-9.176737,38.704031],[-9.176734,38.705146],[-9.176479,38.705513],[-9.176261,38.705638],[-9.175931,38.705717],[-9.174163,38.705721],[-9.173727,38.705633],[-9.173359,38.705345],[-9.173194,38.704933],[-9.172627,38.704628],[-9.172384,38.704166],[-9.172216,38.704063],[-9.169084,38.704051],[-9.168808,38.703997],[-9.168347,38.703792],[-9.167845,38.704001],[-9.167504,38.704054],[-9.166584,38.704051],[-9.166264,38.703996],[-9.165837,38.704054],[-9.164084,38.704051],[-9.163808,38.703997],[-9.163347,38.703792],[-9.162597,38.70405],[-9.161584,38.704051],[-9.161127,38.703991],[-9.160957,38.704094],[-9.160847,38.704448],[-9.160578,38.704727],[-9.160186,38.704872],[-9.159377,38.704923],[-9.159271,38.705019],[-9.159141,38.705345],[-9.158911,38.705561],[-9.15852,38.705706],[-9.15771,38.705756],[-9.157322,38.706339],[-9.157094,38.706472],[-9.156764,38.70655],[-9.155736,38.70655],[-9.155316,38.706429],[-9.155026,38.706178],[-9.154861,38.705766],[-9.154294,38.705461],[-9.154085,38.705076],[-9.154122,38.703952],[-9.154355,38.703653],[-9.154726,38.703479],[-9.156006,38.703459],[-9.156681,38.703708],[-9.15724,38.703475],[-9.158055,38.703435],[-9.158213,38.703339],[-9.158451,38.70288],[-9.158821,38.702665],[-9.15917,38.702612],[-9.160603,38.702655],[-9.16072,38.702558],[-9.160789,38.702286],[-9.160951,38.702047],[-9.161162,38.701898],[-9.16148,38.701794],[-9.162673,38.701792],[-9.163347,38.702041],[-9.163808,38.701836],[-9.164084,38.701782],[-9.165837,38.701779],[-9.166264,38.701838],[-9.167164,38.701778],[-9.16738,38.701672],[-9.167627,38.701205],[-9.167988,38.700999],[-9.16833,38.700946],[-9.170177,38.700926],[-9.170314,38.700819],[-9.170338,38.700689],[-9.170026,38.700345],[-9.16993,38.700135],[-9.16993,38.699031],[-9.170188,38.698653],[-9.170475,38.698503],[-9.170736,38.69845],[-9.172504,38.698446],[-9.172858,38.698503],[-9.173261,38.698762],[-9.173533,38.699238],[-9.174353,38.699294],[-9.174812,38.699486],[-9.175014,38.699719],[-9.175139,38.700067],[-9.175706,38.700372],[-9.176034,38.700905],[-9.177672,38.700959],[-9.178155,38.701161],[-9.178347,38.701386],[-9.178416,38.701602],[-9.178416,38.702565],[-9.178308,38.702845],[-9.178078,38.703061],[-9.17776,38.703191],[-9.176615,38.703221]],[[-9.170794,38.700719],[-9.170567,38.700793],[-9.170495,38.700977],[-9.170662,38.701164],[-9.170876,38.701205],[-9.171115,38.701081],[-9.17117,38.700918],[-9.171041,38.700757],[-9.170794,38.700719]]]}},{"id":"7","type":"Feature","properties":{"id":"medium-02","zone_id":"medium-02","severity":"medium","severity_rank":2,"depth_band":"1\u20133 m","area_m2":724714.0,"rep_lon":-9.098758,"rep_lat":38.743327,"buildings_within":85,"buildings_catchment":400,"building_area_m2":106901.5},"geometry":{"type":"Polygon","coordinates":[[[-9.10342,38.734934],[-9.103511,38.735099],[-9.10404,38.735372],[-9.104234,38.735687],[-9.104254,38.737497],[-9.104186,38.737771],[-9.103923,38.738054],[-9.103473,38.738266],[-9.103347,38.738614],[-9.103156,38.738839],[-9.10264,38.739099],[-9.102519,38.739437],[-9.102373,38.739628],[-9.101774,38.739983],[-9.101754,38.741669],[-9.101686,38.741937],[-9.101423,38.74222],[-9.100973,38.742433],[-9.100853,38.742771],[-9.100707,38.742961],[-9.100185,38.74323],[-9.100092,38.743357],[-9.100083,38.744232],[-9.099963,38.744572],[-9.100083,38.744935],[-9.100087,38.745836],[-9.099975,38.746178],[-9.099745,38.746394],[-9.099427,38.746525],[-9.097847,38.746555],[-9.097692,38.746605],[-9.097593,38.746736],[-9.097583,38.748398],[-9.097463,38.748739],[-9.097587,38.749169],[-9.097583,38.750065],[-9.097463,38.750406],[-9.097587,38.750836],[-9.097583,38.751732],[-9.097463,38.752072],[-9.097587,38.752497],[-9.097587,38.753336],[-9.09752,38.753604],[-9.097322,38.753839],[-9.097025,38.753997],[-9.096152,38.754059],[-9.095986,38.754137],[-9.095922,38.754257],[-9.095883,38.755204],[-9.095761,38.755405],[-9.095517,38.755596],[-9.095083,38.755718],[-9.094083,38.755718],[-9.093821,38.755668],[-9.09346,38.755461],[-9.093284,38.755204],[-9.09325,38.754102],[-9.093451,38.753714],[-9.093966,38.753447],[-9.094073,38.753313],[-9.094083,38.752435],[-9.094204,38.752094],[-9.09408,38.751669],[-9.094085,38.749924],[-9.094293,38.749539],[-9.094876,38.749216],[-9.095034,38.748783],[-9.094913,38.748336],[-9.094955,38.746452],[-9.095126,38.746205],[-9.095406,38.746028],[-9.095736,38.74595],[-9.096348,38.745941],[-9.096545,38.745827],[-9.096647,38.744729],[-9.096854,38.744487],[-9.097299,38.74428],[-9.097407,38.744147],[-9.097413,38.742497],[-9.097486,38.742219],[-9.097744,38.741946],[-9.098193,38.741734],[-9.098314,38.741396],[-9.09846,38.741205],[-9.099056,38.740857],[-9.099117,38.739796],[-9.099344,38.739494],[-9.099889,38.739191],[-9.099917,38.738268],[-9.100025,38.737989],[-9.100255,38.737773],[-9.100676,38.737585],[-9.100951,38.737047],[-9.101466,38.73678],[-9.101566,38.736669],[-9.101559,38.735816],[-9.101011,38.735506],[-9.100763,38.735135],[-9.10075,38.734102],[-9.100852,38.733832],[-9.101078,38.733613],[-9.101393,38.733479],[-9.102596,38.733445],[-9.1028,38.733338],[-9.102824,38.733146],[-9.102519,38.732835],[-9.102413,38.732503],[-9.10243,38.731531],[-9.102678,38.731161],[-9.103161,38.730959],[-9.104339,38.730959],[-9.104756,38.731113],[-9.105045,38.731452],[-9.10507,38.732635],[-9.104882,38.732953],[-9.104525,38.733164],[-9.10425,38.733218],[-9.103238,38.733222],[-9.103033,38.733329],[-9.103009,38.73352],[-9.103269,38.733771],[-9.103404,38.734031],[-9.10342,38.734934]]]}},{"id":"8","type":"Feature","properties":{"id":"medium-03","zone_id":"medium-03","severity":"medium","severity_rank":2,"depth_band":"1\u20133 m","area_m2":695509.1,"rep_lon":-9.224258,"rep_lat":38.695418,"buildings_within":145,"buildings_catchment":371,"building_area_m2":99443.3},"geometry":{"type":"Polygon","coordinates":[[[-9.23532,38.696825],[-9.235837,38.696779],[-9.237583,38.696782],[-9.238089,38.696946],[-9.238314,38.697165],[-9.238416,38.697435],[-9.238415,38.698409],[-9.238206,38.698795],[-9.237858,38.698997],[-9.237504,38.699054],[-9.23583,38.699054],[-9.235431,38.698996],[-9.234996,38.699054],[-9.234084,38.699051],[-9.233764,38.698996],[-9.23333,38.699054],[-9.232417,38.699051],[-9.232097,38.698996],[-9.23167,38.699054],[-9.229917,38.699051],[-9.229642,38.698997],[-9.229345,38.698839],[-9.229153,38.698614],[-9.22905,38.698333],[-9.228933,38.698246],[-9.227865,38.698221],[-9.227648,38.698298],[-9.227427,38.698738],[-9.227025,38.698997],[-9.22667,38.699054],[-9.225647,38.699039],[-9.225328,38.698936],[-9.225118,38.698786],[-9.224823,38.698233],[-9.224264,38.697972],[-9.22407,38.697972],[-9.223692,38.698164],[-9.223337,38.698221],[-9.222327,38.698208],[-9.221911,38.698054],[-9.221692,38.697845],[-9.221599,38.697646],[-9.221579,38.696757],[-9.221496,38.69662],[-9.221349,38.696559],[-9.220736,38.69655],[-9.220406,38.696472],[-9.220073,38.696238],[-9.21979,38.695756],[-9.218893,38.695688],[-9.218589,38.695561],[-9.218406,38.695405],[-9.218251,38.695065],[-9.218266,38.694021],[-9.218511,38.693661],[-9.219027,38.693401],[-9.219148,38.693063],[-9.219294,38.692872],[-9.219861,38.692567],[-9.220019,38.692165],[-9.220255,38.691939],[-9.220736,38.691783],[-9.221853,38.691794],[-9.222106,38.691867],[-9.222373,38.692039],[-9.222606,38.692486],[-9.222725,38.692584],[-9.22352,38.692628],[-9.223922,38.69278],[-9.224148,38.692998],[-9.224306,38.693401],[-9.224683,38.693571],[-9.224927,38.693762],[-9.225156,38.694209],[-9.225336,38.694278],[-9.22602,38.694294],[-9.22635,38.694404],[-9.226602,38.694604],[-9.226777,38.695029],[-9.226914,38.695137],[-9.227126,38.695169],[-9.227323,38.6951],[-9.227573,38.694595],[-9.227975,38.694336],[-9.228337,38.694279],[-9.229427,38.694309],[-9.229812,38.694486],[-9.230019,38.694729],[-9.230083,38.694935],[-9.230088,38.695743],[-9.230152,38.695863],[-9.230346,38.695945],[-9.23102,38.695961],[-9.23135,38.696071],[-9.231641,38.696322],[-9.231766,38.696676],[-9.231889,38.696793],[-9.232069,38.696838],[-9.232504,38.696779],[-9.233416,38.696782],[-9.233764,38.696838],[-9.234084,38.696782],[-9.234996,38.696779],[-9.23532,38.696825]]]}},{"id":"9","type":"Feature","properties":{"id":"medium-04","zone_id":"medium-04","severity":"medium","severity_rank":2,"depth_band":"1\u20133 m","area_m2":485676.0,"rep_lon":-9.098313,"rep_lat":38.789162,"buildings_within":115,"buildings_catchment":188,"building_area_m2":63952.2},"geometry":{"type":"Polygon","coordinates":[[[-9.100088,38.790836],[-9.099966,38.791283],[-9.100088,38.791664],[-9.100046,38.792714],[-9.099813,38.793013],[-9.099307,38.793266],[-9.099142,38.793678],[-9.098851,38.793929],[-9.098417,38.794051],[-9.097226,38.794021],[-9.096784,38.793786],[-9.096498,38.793283],[-9.096355,38.793225],[-9.096126,38.793231],[-9.095927,38.793402],[-9.095917,38.794232],[-9.095848,38.794448],[-9.09559,38.79472],[-9.095141,38.794932],[-9.094982,38.795335],[-9.094745,38.795561],[-9.094264,38.795717],[-9.09325,38.795718],[-9.092893,38.795633],[-9.092572,38.795405],[-9.092418,38.795076],[-9.092412,38.794169],[-9.092572,38.793762],[-9.092816,38.793571],[-9.093175,38.793418],[-9.093358,38.792989],[-9.093649,38.792737],[-9.09398,38.792628],[-9.094652,38.792611],[-9.094847,38.79253],[-9.094911,38.792409],[-9.094929,38.791531],[-9.095187,38.791153],[-9.095647,38.790961],[-9.096375,38.790936],[-9.096566,38.790786],[-9.096545,38.789173],[-9.096347,38.789059],[-9.095736,38.78905],[-9.095393,38.788966],[-9.095072,38.788738],[-9.094929,38.788469],[-9.094916,38.787435],[-9.095018,38.787165],[-9.095406,38.786862],[-9.096047,38.78674],[-9.096171,38.786546],[-9.095851,38.786168],[-9.095693,38.785766],[-9.095244,38.785554],[-9.09498,38.785271],[-9.094912,38.785003],[-9.094916,38.784102],[-9.095025,38.783822],[-9.095255,38.783606],[-9.095647,38.783461],[-9.09644,38.783417],[-9.096559,38.783319],[-9.096793,38.782872],[-9.096994,38.782731],[-9.097313,38.782628],[-9.098337,38.782613],[-9.098679,38.782665],[-9.099041,38.782872],[-9.099235,38.783187],[-9.099235,38.784313],[-9.098989,38.784672],[-9.098441,38.784982],[-9.098417,38.785898],[-9.098348,38.786114],[-9.098156,38.786339],[-9.09794,38.786466],[-9.09727,38.786603],[-9.097162,38.786794],[-9.097475,38.787155],[-9.097607,38.787486],[-9.097726,38.787584],[-9.099353,38.787628],[-9.099745,38.787773],[-9.099982,38.787998],[-9.100088,38.788336],[-9.100088,38.790836]]]}},{"id":"10","type":"Feature","properties":{"id":"medium-05","zone_id":"medium-05","severity":"medium","severity_rank":2,"depth_band":"1\u20133 m","area_m2":440802.5,"rep_lon":-9.111159,"rep_lat":38.725408,"buildings_within":132,"buildings_catchment":306,"building_area_m2":74288.9},"geometry":{"type":"Polygon","coordinates":[[[-9.114541,38.722388],[-9.114359,38.722439],[-9.114255,38.722591],[-9.114234,38.724313],[-9.113829,38.724902],[-9.113978,38.725085],[-9.114427,38.725142],[-9.114684,38.725237],[-9.115019,38.725563],[-9.115087,38.725831],[-9.115083,38.726732],[-9.114882,38.72712],[-9.114607,38.7273],[-9.11425,38.727384],[-9.113161,38.727375],[-9.112486,38.727126],[-9.111839,38.727375],[-9.110234,38.727413],[-9.110104,38.727519],[-9.109873,38.727961],[-9.109306,38.728266],[-9.109049,38.728786],[-9.108452,38.72913],[-9.108404,38.730135],[-9.108146,38.730513],[-9.107846,38.730668],[-9.107504,38.730721],[-9.106569,38.730717],[-9.106088,38.730561],[-9.105859,38.730345],[-9.105763,38.730135],[-9.105784,38.728963],[-9.106011,38.728661],[-9.106556,38.728357],[-9.106584,38.727435],[-9.106647,38.727229],[-9.106911,38.726946],[-9.10736,38.726734],[-9.107534,38.726283],[-9.107413,38.725836],[-9.107455,38.724786],[-9.107688,38.724486],[-9.108194,38.724234],[-9.108451,38.723714],[-9.108727,38.723534],[-9.108994,38.723459],[-9.110186,38.723461],[-9.11044,38.723534],[-9.110707,38.723705],[-9.111011,38.724224],[-9.111199,38.724279],[-9.111452,38.724241],[-9.111578,38.724076],[-9.111585,38.722424],[-9.111739,38.722095],[-9.111983,38.721904],[-9.112226,38.721812],[-9.113015,38.721775],[-9.113181,38.721697],[-9.113245,38.721576],[-9.113284,38.720629],[-9.113406,38.720428],[-9.11365,38.720237],[-9.114084,38.720116],[-9.115186,38.720128],[-9.115645,38.72032],[-9.115878,38.720619],[-9.115901,38.721813],[-9.115716,38.72212],[-9.11544,38.7223],[-9.115097,38.722383],[-9.114541,38.722388]]]}},{"id":"11","type":"Feature","properties":{"id":"medium-06","zone_id":"medium-06","severity":"medium","severity_rank":2,"depth_band":"1\u20133 m","area_m2":422915.3,"rep_lon":-9.083333,"rep_lat":38.655385,"buildings_within":91,"buildings_catchment":634,"building_area_m2":19312.3},"geometry":{"type":"Polygon","coordinates":[[[-9.086747,38.657424],[-9.086733,38.659313],[-9.086488,38.659672],[-9.086093,38.659858],[-9.084084,38.659884],[-9.08365,38.659763],[-9.083452,38.65962],[-9.083289,38.659381],[-9.083242,38.658402],[-9.083163,38.658287],[-9.083016,38.658225],[-9.082666,38.658283],[-9.082382,38.658786],[-9.081927,38.659025],[-9.080736,38.65905],[-9.080406,38.658972],[-9.080178,38.658839],[-9.079987,38.658614],[-9.079861,38.658266],[-9.079294,38.657961],[-9.079085,38.657565],[-9.079118,38.656463],[-9.079345,38.656161],[-9.07989,38.655857],[-9.079933,38.654854],[-9.080338,38.654294],[-9.080302,38.654169],[-9.080185,38.65408],[-9.079726,38.654021],[-9.079412,38.653887],[-9.079193,38.653678],[-9.0791,38.653479],[-9.079085,38.651602],[-9.079154,38.651386],[-9.079355,38.651153],[-9.079828,38.650959],[-9.080916,38.650949],[-9.081338,38.651064],[-9.081641,38.651322],[-9.081753,38.651664],[-9.081753,38.653336],[-9.081647,38.653668],[-9.081335,38.654002],[-9.081347,38.654135],[-9.081477,38.654251],[-9.085916,38.654282],[-9.08626,38.654362],[-9.086488,38.654494],[-9.08668,38.654719],[-9.086749,38.654935],[-9.086753,38.656669],[-9.086629,38.657072],[-9.086747,38.657424]]]}},{"id":"12","type":"Feature","properties":{"id":"medium-07","zone_id":"medium-07","severity":"medium","severity_rank":2,"depth_band":"1\u20133 m","area_m2":372624.6,"rep_lon":-9.124909,"rep_lat":38.652909,"buildings_within":7,"buildings_catchment":15,"building_area_m2":978.7},"geometry":{"type":"Polygon","coordinates":[[[-9.129671,38.654398],[-9.129935,38.654604],[-9.130082,38.654935],[-9.130081,38.655909],[-9.129873,38.656295],[-9.129606,38.656466],[-9.129264,38.65655],[-9.127417,38.656551],[-9.127073,38.656472],[-9.126794,38.656295],[-9.126648,38.656104],[-9.126528,38.655766],[-9.125961,38.655461],[-9.12573,38.655019],[-9.1256,38.654913],[-9.124084,38.654884],[-9.123808,38.65483],[-9.123406,38.654572],[-9.123223,38.654113],[-9.123041,38.65399],[-9.122583,38.654051],[-9.121663,38.654054],[-9.12115,38.653929],[-9.120853,38.653668],[-9.120747,38.653336],[-9.120751,38.652435],[-9.120871,38.652072],[-9.120747,38.651669],[-9.120747,38.649997],[-9.120906,38.649595],[-9.121227,38.649367],[-9.121584,38.649282],[-9.123416,38.649282],[-9.12385,38.649404],[-9.124094,38.649595],[-9.124215,38.649796],[-9.124254,38.650743],[-9.124337,38.65088],[-9.124484,38.650941],[-9.125097,38.65095],[-9.125427,38.651028],[-9.12576,38.651262],[-9.126033,38.651738],[-9.127025,38.651836],[-9.127427,38.652095],[-9.127699,38.652572],[-9.12852,38.652628],[-9.128922,38.65278],[-9.129141,38.652989],[-9.129236,38.653198],[-9.129266,38.654169],[-9.129366,38.65428],[-9.129671,38.654398]]]}},{"id":"13","type":"Feature","properties":{"id":"medium-08","zone_id":"medium-08","severity":"medium","severity_rank":2,"depth_band":"1\u20133 m","area_m2":313844.8,"rep_lon":-9.123242,"rep_lat":38.712931,"buildings_within":99,"buildings_catchment":938,"building_area_m2":49682.8},"geometry":{"type":"Polygon","coordinates":[[[-9.128989,38.710506],[-9.128444,38.710804],[-9.128269,38.711229],[-9.128005,38.711436],[-9.127673,38.711541],[-9.1269,38.711579],[-9.126771,38.711685],[-9.126602,38.712062],[-9.126338,38.712269],[-9.126006,38.712375],[-9.125338,38.712389],[-9.125167,38.712449],[-9.124928,38.712905],[-9.124684,38.713096],[-9.124324,38.713249],[-9.124141,38.713678],[-9.123839,38.713936],[-9.123416,38.714051],[-9.122417,38.714051],[-9.122041,38.713983],[-9.121838,38.714049],[-9.121755,38.714186],[-9.121749,38.715065],[-9.121648,38.715335],[-9.121411,38.715561],[-9.120973,38.715766],[-9.120769,38.716229],[-9.120578,38.716394],[-9.12014,38.716599],[-9.119981,38.717002],[-9.119745,38.717227],[-9.119264,38.717383],[-9.11825,38.717384],[-9.117906,38.717305],[-9.117618,38.71712],[-9.117417,38.716732],[-9.117413,38.715831],[-9.117481,38.715563],[-9.117744,38.71528],[-9.118194,38.715067],[-9.11832,38.714719],[-9.118511,38.714494],[-9.119027,38.714234],[-9.119147,38.713896],[-9.119293,38.713705],[-9.119573,38.713528],[-9.119903,38.71345],[-9.120916,38.713449],[-9.121292,38.713517],[-9.121475,38.713466],[-9.121578,38.713314],[-9.121584,38.712435],[-9.121648,38.712229],[-9.121911,38.711946],[-9.12236,38.711734],[-9.122481,38.711396],[-9.122627,38.711205],[-9.123073,38.710975],[-9.123966,38.710905],[-9.124239,38.710428],[-9.124573,38.710195],[-9.124827,38.710125],[-9.125633,38.710072],[-9.125906,38.709595],[-9.12615,38.709404],[-9.126509,38.709251],[-9.126731,38.708771],[-9.12706,38.708534],[-9.127417,38.708449],[-9.128506,38.708459],[-9.12885,38.708571],[-9.129141,38.708822],[-9.129249,38.709102],[-9.129234,38.710146],[-9.128989,38.710506]]]}},{"id":"14","type":"Feature","properties":{"id":"medium-09","zone_id":"medium-09","severity":"medium","severity_rank":2,"depth_band":"1\u20133 m","area_m2":307073.4,"rep_lon":-9.211328,"rep_lat":38.693755,"buildings_within":49,"buildings_catchment":177,"building_area_m2":49654.6},"geometry":{"type":"Polygon","coordinates":[[[-9.217172,38.692731],[-9.217427,38.692928],[-9.217567,38.693187],[-9.217583,38.694232],[-9.217382,38.69462],[-9.216927,38.694858],[-9.215837,38.694888],[-9.215403,38.694829],[-9.215004,38.694887],[-9.213337,38.694888],[-9.212903,38.694829],[-9.211977,38.694892],[-9.211783,38.695],[-9.21168,38.695281],[-9.211479,38.695513],[-9.211179,38.695668],[-9.210837,38.695721],[-9.209917,38.695718],[-9.20956,38.695633],[-9.209192,38.695345],[-9.209028,38.694909],[-9.208819,38.694816],[-9.207733,38.694913],[-9.207616,38.695],[-9.207514,38.695281],[-9.207322,38.695506],[-9.207094,38.695638],[-9.206764,38.695717],[-9.20583,38.695721],[-9.205488,38.695668],[-9.205178,38.695506],[-9.204951,38.695204],[-9.204917,38.694102],[-9.205073,38.693762],[-9.205255,38.693606],[-9.20556,38.693479],[-9.206467,38.693405],[-9.206785,38.69288],[-9.20724,38.692642],[-9.208607,38.692645],[-9.208911,38.692773],[-9.209094,38.692928],[-9.209269,38.69337],[-9.209397,38.693489],[-9.210498,38.693445],[-9.210713,38.693339],[-9.21096,38.692872],[-9.211321,38.692665],[-9.211663,38.692613],[-9.212583,38.692616],[-9.212903,38.692671],[-9.213111,38.692626],[-9.213223,38.692529],[-9.213406,38.692095],[-9.213821,38.691832],[-9.214163,38.691779],[-9.21583,38.691779],[-9.216179,38.691832],[-9.216422,38.691946],[-9.216648,38.692165],[-9.216806,38.692567],[-9.217172,38.692731]]]}},{"id":"15","type":"Feature","properties":{"id":"medium-10","zone_id":"medium-10","severity":"medium","severity_rank":2,"depth_band":"1\u20133 m","area_m2":280987.7,"rep_lon":-9.095833,"rep_lat":38.798333,"buildings_within":7,"buildings_catchment":39,"building_area_m2":15405.2},"geometry":{"type":"Polygon","coordinates":[[[-9.099248,38.79742],[-9.099447,38.797602],[-9.100359,38.79767],[-9.100646,38.79782],[-9.100809,38.797989],[-9.100921,38.798336],[-9.100917,38.799232],[-9.100809,38.799511],[-9.100579,38.799727],[-9.100261,38.799858],[-9.098994,38.799875],[-9.098726,38.7998],[-9.098459,38.799628],[-9.098144,38.799102],[-9.097766,38.799071],[-9.097593,38.799236],[-9.097584,38.800065],[-9.097515,38.800281],[-9.097245,38.800561],[-9.096839,38.800708],[-9.09575,38.800718],[-9.095405,38.800638],[-9.095072,38.800405],[-9.094875,38.799951],[-9.094653,38.799836],[-9.093337,38.799888],[-9.092974,38.79983],[-9.092572,38.799572],[-9.092311,38.799102],[-9.091494,38.799041],[-9.091239,38.798972],[-9.09095,38.798786],[-9.090762,38.798469],[-9.090765,38.797354],[-9.090905,38.797095],[-9.091226,38.796867],[-9.091583,38.796782],[-9.092687,38.796794],[-9.09294,38.796867],[-9.093207,38.797039],[-9.093455,38.797506],[-9.093613,38.797602],[-9.094569,38.797671],[-9.095514,38.797608],[-9.095661,38.797546],[-9.09574,38.797431],[-9.09575,38.796602],[-9.095819,38.796386],[-9.096088,38.796106],[-9.096494,38.795959],[-9.097583,38.795949],[-9.098017,38.796071],[-9.098309,38.796322],[-9.098474,38.796734],[-9.099041,38.797039],[-9.099248,38.79742]]]}},{"id":"16","type":"Feature","properties":{"id":"medium-11","zone_id":"medium-11","severity":"medium","severity_rank":2,"depth_band":"1\u20133 m","area_m2":272227.6,"rep_lon":-9.157514,"rep_lat":38.684995,"buildings_within":143,"buildings_catchment":623,"building_area_m2":32380.6},"geometry":{"type":"Polygon","coordinates":[[[-9.162031,38.684888],[-9.161798,38.684982],[-9.16168,38.685281],[-9.161488,38.685506],[-9.161006,38.685708],[-9.157504,38.685721],[-9.156909,38.685673],[-9.156777,38.68578],[-9.156711,38.686048],[-9.156549,38.686286],[-9.15599,38.686582],[-9.155761,38.687072],[-9.155517,38.687263],[-9.15526,38.687358],[-9.153147,38.687372],[-9.152688,38.68718],[-9.152451,38.686871],[-9.152414,38.685836],[-9.152481,38.685563],[-9.152745,38.68528],[-9.153194,38.685067],[-9.153359,38.684655],[-9.15365,38.684404],[-9.154163,38.684279],[-9.155837,38.684279],[-9.156383,38.68434],[-9.156554,38.684224],[-9.156732,38.683771],[-9.156995,38.683564],[-9.157417,38.683449],[-9.158916,38.683427],[-9.159061,38.683319],[-9.159294,38.682872],[-9.15974,38.682642],[-9.162583,38.682616],[-9.162927,38.682695],[-9.163215,38.68288],[-9.163416,38.683268],[-9.16342,38.684169],[-9.163347,38.684448],[-9.163155,38.684672],[-9.162858,38.68483],[-9.162031,38.684888]]]}},{"id":"17","type":"Feature","properties":{"id":"medium-12","zone_id":"medium-12","severity":"medium","severity_rank":2,"depth_band":"1\u20133 m","area_m2":268870.7,"rep_lon":-9.095417,"rep_lat":38.765002,"buildings_within":47,"buildings_catchment":96,"building_area_m2":78194.7},"geometry":{"type":"Polygon","coordinates":[[[-9.097449,38.764054],[-9.097249,38.764118],[-9.097162,38.764272],[-9.097203,38.764397],[-9.097482,38.764665],[-9.097583,38.764935],[-9.097582,38.765909],[-9.097383,38.766286],[-9.096941,38.766521],[-9.096152,38.766559],[-9.095986,38.766637],[-9.095922,38.766757],[-9.095883,38.767704],[-9.095716,38.767953],[-9.09544,38.768133],[-9.095083,38.768218],[-9.094083,38.768218],[-9.093588,38.768061],[-9.093352,38.767835],[-9.093246,38.767497],[-9.09325,38.766602],[-9.09337,38.766261],[-9.093246,38.765836],[-9.093246,38.762497],[-9.093288,38.762286],[-9.093451,38.762047],[-9.093739,38.761862],[-9.094163,38.761779],[-9.098337,38.761779],[-9.098839,38.761898],[-9.099103,38.762104],[-9.099249,38.762424],[-9.09925,38.763398],[-9.099148,38.763668],[-9.098923,38.763887],[-9.098594,38.764025],[-9.097449,38.764054]]]}},{"id":"18","type":"Feature","properties":{"id":"medium-13","zone_id":"medium-13","severity":"medium","severity_rank":2,"depth_band":"1\u20133 m","area_m2":249297.1,"rep_lon":-9.143742,"rep_lat":38.665822,"buildings_within":23,"buildings_catchment":60,"building_area_m2":27570.1},"geometry":{"type":"Polygon","coordinates":[[[-9.145328,38.666436],[-9.145123,38.666313],[-9.144958,38.666294],[-9.144343,38.666567],[-9.144094,38.667072],[-9.14385,38.667263],[-9.14349,38.667416],[-9.143268,38.667896],[-9.142927,38.668138],[-9.142583,38.668218],[-9.14167,38.668221],[-9.141227,38.668133],[-9.140898,38.667896],[-9.140676,38.667416],[-9.140256,38.667227],[-9.140026,38.667011],[-9.139918,38.666732],[-9.139894,38.665816],[-9.139355,38.665513],[-9.139148,38.665271],[-9.139081,38.665003],[-9.13908,38.664169],[-9.139193,38.663822],[-9.139483,38.663571],[-9.139828,38.663459],[-9.14175,38.663449],[-9.142025,38.663503],[-9.142312,38.663653],[-9.142513,38.663886],[-9.14262,38.664172],[-9.142806,38.664274],[-9.144339,38.664292],[-9.144986,38.664541],[-9.14575,38.664282],[-9.146764,38.664283],[-9.147183,38.664404],[-9.147435,38.664604],[-9.147581,38.664924],[-9.147582,38.665898],[-9.147427,38.666238],[-9.147106,38.666466],[-9.146764,38.66655],[-9.145736,38.66655],[-9.145328,38.666436]]]}},{"id":"19","type":"Feature","properties":{"id":"medium-14","zone_id":"medium-14","severity":"medium","severity_rank":2,"depth_band":"1\u20133 m","area_m2":187776.9,"rep_lon":-9.200417,"rep_lat":38.695833,"buildings_within":53,"buildings_catchment":194,"building_area_m2":15877.8},"geometry":{"type":"Polygon","coordinates":[[[-9.201986,38.695158],[-9.203506,38.695125],[-9.203838,38.695231],[-9.204094,38.695428],[-9.204249,38.695768],[-9.204248,38.696743],[-9.204141,38.697011],[-9.20385,38.697263],[-9.20333,38.697388],[-9.202417,38.697384],[-9.202097,38.697329],[-9.201663,38.697388],[-9.20075,38.697384],[-9.200431,38.697329],[-9.199996,38.697388],[-9.198147,38.697372],[-9.197894,38.6973],[-9.197627,38.697128],[-9.197481,38.696937],[-9.197361,38.696599],[-9.196845,38.696339],[-9.196597,38.695969],[-9.196622,38.694786],[-9.196911,38.694446],[-9.197328,38.694292],[-9.198337,38.694279],[-9.198736,38.694338],[-9.199163,38.694279],[-9.200186,38.694294],[-9.20044,38.694367],[-9.200706,38.694539],[-9.20094,38.694986],[-9.201058,38.695084],[-9.201986,38.695158]]]}},{"id":"20","type":"Feature","properties":{"id":"medium-15","zone_id":"medium-15","severity":"medium","severity_rank":2,"depth_band":"1\u20133 m","area_m2":159523.8,"rep_lon":-9.137083,"rep_lat":38.70625,"buildings_within":33,"buildings_catchment":202,"building_area_m2":14592.8},"geometry":{"type":"Polygon","coordinates":[[[-9.135173,38.705125],[-9.135903,38.705368],[-9.136308,38.70517],[-9.136663,38.705113],[-9.139996,38.705112],[-9.140345,38.705165],[-9.140706,38.705372],[-9.140901,38.705687],[-9.14092,38.706669],[-9.140852,38.706937],[-9.140517,38.707263],[-9.140083,38.707384],[-9.136584,38.707384],[-9.135819,38.707126],[-9.135186,38.707372],[-9.134163,38.707387],[-9.133821,38.707335],[-9.133578,38.70722],[-9.133352,38.707002],[-9.133251,38.706732],[-9.133252,38.705757],[-9.13346,38.705372],[-9.133808,38.70517],[-9.134163,38.705113],[-9.135173,38.705125]]]}},{"id":"21","type":"Feature","properties":{"id":"medium-16","zone_id":"medium-16","severity":"medium","severity_rank":2,"depth_band":"1\u20133 m","area_m2":133419.3,"rep_lon":-9.145833,"rep_lat":38.70583,"buildings_within":41,"buildings_catchment":214,"building_area_m2":38295.7},"geometry":{"type":"Polygon","coordinates":[[[-9.148215,38.706286],[-9.147611,38.706637],[-9.147519,38.706937],[-9.147382,38.70712],[-9.14694,38.707355],[-9.144996,38.707387],[-9.14456,38.7073],[-9.144192,38.707011],[-9.144027,38.706599],[-9.143521,38.706347],[-9.143289,38.706048],[-9.143247,38.704997],[-9.143359,38.704655],[-9.143662,38.704398],[-9.144084,38.704282],[-9.145083,38.704282],[-9.145431,38.704338],[-9.14583,38.704279],[-9.147504,38.704279],[-9.14794,38.704367],[-9.148261,38.704595],[-9.148401,38.704854],[-9.148416,38.705898],[-9.148215,38.706286]]]}},{"id":"22","type":"Feature","properties":{"id":"medium-17","zone_id":"medium-17","severity":"medium","severity_rank":2,"depth_band":"1\u20133 m","area_m2":133330.4,"rep_lon":-9.090833,"rep_lat":38.657502,"buildings_within":2,"buildings_catchment":12,"building_area_m2":1177.7},"geometry":{"type":"Polygon","coordinates":[[[-9.092031,38.658221],[-9.091797,38.658315],[-9.09168,38.658614],[-9.091488,38.658839],[-9.091093,38.659025],[-9.089084,38.659051],[-9.08865,38.658929],[-9.088359,38.658678],[-9.088251,38.658398],[-9.088251,38.656602],[-9.088406,38.656262],[-9.088727,38.656034],[-9.089084,38.655949],[-9.090172,38.655959],[-9.090819,38.656208],[-9.091584,38.655949],[-9.092597,38.65595],[-9.093016,38.656071],[-9.093268,38.656271],[-9.093403,38.656531],[-9.093419,38.657503],[-9.093352,38.657771],[-9.093155,38.658006],[-9.092858,38.658164],[-9.092031,38.658221]]]}},{"id":"23","type":"Feature","properties":{"id":"medium-18","zone_id":"medium-18","severity":"medium","severity_rank":2,"depth_band":"1\u20133 m","area_m2":124670.0,"rep_lon":-9.16625,"rep_lat":38.681667,"buildings_within":8,"buildings_catchment":119,"building_area_m2":4612.5},"geometry":{"type":"Polygon","coordinates":[[[-9.164573,38.683138],[-9.164232,38.682896],[-9.164084,38.682565],[-9.164084,38.680768],[-9.164153,38.680552],[-9.164345,38.680328],[-9.164642,38.68017],[-9.165004,38.680112],[-9.167583,38.680116],[-9.167858,38.68017],[-9.168145,38.68032],[-9.168347,38.680552],[-9.16842,38.680836],[-9.168416,38.682565],[-9.168347,38.682781],[-9.168155,38.683006],[-9.167858,38.683164],[-9.167504,38.683221],[-9.164996,38.683221],[-9.164573,38.683138]]]}},{"id":"24","type":"Feature","properties":{"id":"medium-19","zone_id":"medium-19","severity":"medium","severity_rank":2,"depth_band":"1\u20133 m","area_m2":108431.9,"rep_lon":-9.185417,"rep_lat":38.698333,"buildings_within":10,"buildings_catchment":75,"building_area_m2":24313.9},"geometry":{"type":"Polygon","coordinates":[[[-9.187382,38.698786],[-9.186777,38.699137],[-9.186594,38.699572],[-9.186179,38.699835],[-9.185916,38.699884],[-9.184917,38.699884],[-9.184483,38.699763],[-9.184192,38.699511],[-9.184027,38.699099],[-9.183521,38.698847],[-9.183289,38.698548],[-9.183251,38.697435],[-9.183406,38.697095],[-9.183727,38.696867],[-9.184084,38.696782],[-9.185083,38.696782],[-9.185431,38.696838],[-9.18575,38.696782],[-9.18675,38.696782],[-9.187183,38.696904],[-9.187427,38.697095],[-9.187567,38.697354],[-9.187583,38.698398],[-9.187382,38.698786]]]}},{"id":"25","type":"Feature","properties":{"id":"medium-20","zone_id":"medium-20","severity":"medium","severity_rank":2,"depth_band":"1\u20133 m","area_m2":91607.8,"rep_lon":-9.095,"rep_lat":38.759168,"buildings_within":64,"buildings_catchment":123,"building_area_m2":32434.0},"geometry":{"type":"Polygon","coordinates":[[[-9.096339,38.758564],[-9.096642,38.758822],[-9.096754,38.759164],[-9.096737,38.760135],[-9.096642,38.760345],[-9.096423,38.760554],[-9.095917,38.760718],[-9.094163,38.760721],[-9.093808,38.760664],[-9.09346,38.760461],[-9.09325,38.760065],[-9.093246,38.758331],[-9.093319,38.758052],[-9.093577,38.75778],[-9.094083,38.757616],[-9.095083,38.757616],[-9.095346,38.757665],[-9.095761,38.757928],[-9.095991,38.758418],[-9.096339,38.758564]]]}},{"id":"26","type":"Feature","properties":{"id":"medium-21","zone_id":"medium-21","severity":"medium","severity_rank":2,"depth_band":"1\u20133 m","area_m2":83583.2,"rep_lon":-9.105,"rep_lat":38.795,"buildings_within":53,"buildings_catchment":168,"building_area_m2":12115.9},"geometry":{"type":"Polygon","coordinates":[[[-9.106541,38.795461],[-9.105945,38.795804],[-9.105853,38.796104],[-9.105707,38.796295],[-9.105506,38.796436],[-9.105187,38.796539],[-9.103906,38.796525],[-9.103588,38.796394],[-9.103358,38.796178],[-9.103246,38.795836],[-9.103287,38.794786],[-9.103521,38.794487],[-9.104026,38.794234],[-9.104191,38.793822],[-9.10456,38.793534],[-9.104917,38.793449],[-9.106006,38.793459],[-9.106351,38.793571],[-9.106642,38.793822],[-9.10675,38.794102],[-9.106735,38.795146],[-9.106541,38.795461]]]}},{"id":"27","type":"Feature","properties":{"id":"medium-22","zone_id":"medium-22","severity":"medium","severity_rank":2,"depth_band":"1\u20133 m","area_m2":71476.0,"rep_lon":-9.0775,"rep_lat":38.664583,"buildings_within":301,"buildings_catchment":921,"building_area_m2":18908.9},"geometry":{"type":"Polygon","coordinates":[[[-9.07624,38.665638],[-9.075898,38.665396],[-9.075751,38.665065],[-9.075764,38.664031],[-9.075859,38.663822],[-9.076078,38.663613],[-9.076584,38.663449],[-9.078337,38.663446],[-9.078692,38.663503],[-9.079039,38.663705],[-9.079247,38.664091],[-9.079249,38.665065],[-9.079147,38.665335],[-9.078922,38.665554],[-9.078679,38.665668],[-9.078337,38.665721],[-9.076584,38.665718],[-9.07624,38.665638]]]}},{"id":"28","type":"Feature","properties":{"id":"medium-23","zone_id":"medium-23","severity":"medium","severity_rank":2,"depth_band":"1\u20133 m","area_m2":71460.2,"rep_lon":-9.193333,"rep_lat":38.69625,"buildings_within":21,"buildings_catchment":133,"building_area_m2":15982.5},"geometry":{"type":"Polygon","coordinates":[[[-9.191995,38.697269],[-9.191692,38.697011],[-9.19158,38.696669],[-9.191597,38.695698],[-9.191692,38.695489],[-9.191911,38.69528],[-9.192417,38.695116],[-9.19417,38.695113],[-9.194525,38.69517],[-9.194873,38.695372],[-9.195081,38.695757],[-9.195083,38.696732],[-9.194981,38.697002],[-9.194756,38.69722],[-9.194512,38.697335],[-9.194163,38.697388],[-9.192417,38.697384],[-9.191995,38.697269]]]}},{"id":"29","type":"Feature","properties":{"id":"medium-24","zone_id":"medium-24","severity":"medium","severity_rank":2,"depth_band":"1\u20133 m","area_m2":53175.2,"rep_lon":-9.07375,"rep_lat":38.652083,"buildings_within":4,"buildings_catchment":186,"building_area_m2":1115.3},"geometry":{"type":"Polygon","coordinates":[[[-9.072829,38.653102],[-9.072565,38.652896],[-9.072419,38.652576],[-9.072418,38.651602],[-9.072573,38.651262],[-9.072894,38.651034],[-9.073236,38.65095],[-9.074264,38.65095],[-9.074683,38.651071],[-9.074935,38.651271],[-9.075081,38.651591],[-9.075082,38.652565],[-9.074927,38.652905],[-9.074606,38.653133],[-9.074264,38.653217],[-9.073236,38.653217],[-9.072829,38.653102]]]}},{"id":"30","type":"Feature","properties":{"id":"medium-25","zone_id":"medium-25","severity":"medium","severity_rank":2,"depth_band":"1\u20133 m","area_m2":53173.5,"rep_lon":-9.13625,"rep_lat":38.65875,"buildings_within":4,"buildings_catchment":14,"building_area_m2":3937.9},"geometry":{"type":"Polygon","coordinates":[[[-9.135329,38.659769],[-9.135065,38.659562],[-9.134919,38.659243],[-9.134918,38.658268],[-9.135073,38.657928],[-9.135394,38.6577],[-9.135736,38.657617],[-9.136764,38.657617],[-9.137183,38.657737],[-9.137435,38.657938],[-9.137581,38.658257],[-9.137582,38.659232],[-9.137427,38.659572],[-9.137171,38.659769],[-9.136764,38.659883],[-9.135736,38.659883],[-9.135329,38.659769]]]}},{"id":"31","type":"Feature","properties":{"id":"medium-26","zone_id":"medium-26","severity":"medium","severity_rank":2,"depth_band":"1\u20133 m","area_m2":53169.8,"rep_lon":-9.152083,"rep_lat":38.67375,"buildings_within":6,"buildings_catchment":80,"building_area_m2":4067.6},"geometry":{"type":"Polygon","coordinates":[[[-9.15124,38.674805],[-9.150906,38.674572],[-9.150752,38.674243],[-9.150751,38.673268],[-9.150906,38.672928],[-9.151162,38.672731],[-9.15157,38.672617],[-9.152597,38.672617],[-9.153017,38.672737],[-9.153307,38.672989],[-9.153414,38.673257],[-9.153416,38.674232],[-9.15326,38.674572],[-9.153005,38.674769],[-9.152597,38.674883],[-9.151584,38.674884],[-9.15124,38.674805]]]}},{"id":"32","type":"Feature","properties":{"id":"medium-27","zone_id":"medium-27","severity":"medium","severity_rank":2,"depth_band":"1\u20133 m","area_m2":53163.5,"rep_lon":-9.180417,"rep_lat":38.69875,"buildings_within":6,"buildings_catchment":83,"building_area_m2":4963.3},"geometry":{"type":"Polygon","coordinates":[[[-9.179495,38.699769],[-9.179231,38.699562],[-9.179085,38.699243],[-9.179084,38.698268],[-9.179239,38.697928],[-9.179495,38.697731],[-9.179903,38.697617],[-9.18093,38.697617],[-9.18135,38.697737],[-9.181641,38.697989],[-9.181748,38.698257],[-9.181749,38.699232],[-9.181594,38.699572],[-9.181273,38.6998],[-9.18093,38.699883],[-9.179903,38.699883],[-9.179495,38.699769]]]}},{"id":"33","type":"Feature","properties":{"id":"medium-28","zone_id":"medium-28","severity":"medium","severity_rank":2,"depth_band":"1\u20133 m","area_m2":53163.4,"rep_lon":-9.249583,"rep_lat":38.699583,"buildings_within":11,"buildings_catchment":46,"building_area_m2":6081.5},"geometry":{"type":"Polygon","coordinates":[[[-9.248739,38.700638],[-9.248406,38.700405],[-9.248252,38.700076],[-9.248251,38.699102],[-9.248406,38.698762],[-9.248662,38.698564],[-9.24907,38.69845],[-9.250097,38.69845],[-9.250517,38.698571],[-9.250769,38.698771],[-9.250915,38.699091],[-9.250916,38.700065],[-9.250761,38.700405],[-9.250505,38.700602],[-9.250097,38.700717],[-9.249084,38.700718],[-9.248739,38.700638]]]}},{"id":"34","type":"Feature","properties":{"id":"medium-29","zone_id":"medium-29","severity":"medium","severity_rank":2,"depth_band":"1\u20133 m","area_m2":53161.6,"rep_lon":-9.150417,"rep_lat":38.70625,"buildings_within":18,"buildings_catchment":103,"building_area_m2":8516.3},"geometry":{"type":"Polygon","coordinates":[[[-9.149495,38.707269],[-9.149231,38.707062],[-9.149085,38.706743],[-9.149084,38.705768],[-9.149239,38.705428],[-9.14956,38.7052],[-9.149903,38.705117],[-9.15093,38.705117],[-9.15135,38.705237],[-9.151641,38.705489],[-9.151748,38.705757],[-9.151749,38.706732],[-9.151594,38.707072],[-9.151273,38.7073],[-9.150931,38.707383],[-9.149903,38.707383],[-9.149495,38.707269]]]}},{"id":"35","type":"Feature","properties":{"id":"medium-30","zone_id":"medium-30","severity":"medium","severity_rank":2,"depth_band":"1\u20133 m","area_m2":53138.3,"rep_lon":-9.105417,"rep_lat":38.79875,"buildings_within":2,"buildings_catchment":23,"building_area_m2":13259.0},"geometry":{"type":"Polygon","coordinates":[[[-9.104494,38.799769],[-9.10423,38.799562],[-9.104084,38.799243],[-9.104083,38.798268],[-9.104238,38.797928],[-9.10456,38.7977],[-9.104903,38.797617],[-9.105931,38.797617],[-9.106351,38.797737],[-9.106603,38.797938],[-9.106749,38.798257],[-9.106751,38.799232],[-9.106595,38.799572],[-9.106274,38.7998],[-9.105931,38.799883],[-9.104903,38.799883],[-9.104494,38.799769]]]}},{"id":"36","type":"Feature","properties":{"id":"low-01","zone_id":"low-01","severity":"low","severity_rank":1,"depth_band":"0.1\u20131 m","area_m2":192004.8,"rep_lon":-9.220833,"rep_lat":38.694996,"buildings_within":92,"buildings_catchment":270,"building_area_m2":34629.9},"geometry":{"type":"Polygon","coordinates":[[[-9.222997,38.696277],[-9.224249,38.696312],[-9.224553,38.696471],[-9.224625,38.696637],[-9.224625,38.69753],[-9.224553,38.697696],[-9.224416,38.697803],[-9.224205,38.697859],[-9.223295,38.697859],[-9.222974,38.697724],[-9.222873,38.697497],[-9.222875,38.696637],[-9.22295,38.696371],[-9.222762,38.696192],[-9.221629,38.696192],[-9.22125,38.696094],[-9.220871,38.696192],[-9.219163,38.696194],[-9.218881,38.696115],[-9.218709,38.695863],[-9.218707,38.694997],[-9.218777,38.694744],[-9.218725,38.694623],[-9.218517,38.694528],[-9.217331,38.694502],[-9.217078,38.69431],[-9.217035,38.693875],[-9.216912,38.693732],[-9.215781,38.693691],[-9.215536,38.693608],[-9.215375,38.693363],[-9.215375,38.69247],[-9.215447,38.692304],[-9.215584,38.692197],[-9.215795,38.692141],[-9.217627,38.692154],[-9.217909,38.692335],[-9.217972,38.692813],[-9.218137,38.692956],[-9.220004,38.692973],[-9.220261,38.693037],[-9.220442,38.693234],[-9.220482,38.693671],[-9.220637,38.693793],[-9.222504,38.693806],[-9.222749,38.693864],[-9.222902,38.693992],[-9.22296,38.694164],[-9.22296,38.695836],[-9.222883,38.696129],[-9.222997,38.696277]]]}},{"id":"37","type":"Feature","properties":{"id":"low-02","zone_id":"low-02","severity":"low","severity_rank":1,"depth_band":"0.1\u20131 m","area_m2":118386.6,"rep_lon":-9.095833,"rep_lat":38.759167,"buildings_within":61,"buildings_catchment":165,"building_area_m2":35756.1},"geometry":{"type":"Polygon","coordinates":[[[-9.095623,38.761987],[-9.095447,38.761862],[-9.095375,38.761696],[-9.095351,38.759666],[-9.095195,38.759544],[-9.094873,38.759513],[-9.09468,38.759425],[-9.09455,38.759242],[-9.094474,38.758776],[-9.093917,38.758636],[-9.093717,38.758409],[-9.09371,38.756626],[-9.093816,38.756434],[-9.09407,38.756314],[-9.095052,38.756309],[-9.095379,38.756462],[-9.095458,38.756637],[-9.095482,38.757834],[-9.095612,38.757946],[-9.096003,38.757998],[-9.096193,38.758109],[-9.096378,38.75874],[-9.096849,38.758836],[-9.097053,38.758971],[-9.097125,38.759137],[-9.097149,38.760334],[-9.097305,38.760456],[-9.097761,38.760537],[-9.09795,38.760758],[-9.097957,38.761707],[-9.097761,38.761963],[-9.097496,38.762027],[-9.095623,38.761987]]]}},{"id":"38","type":"Feature","properties":{"id":"low-03","zone_id":"low-03","severity":"low","severity_rank":1,"depth_band":"0.1\u20131 m","area_m2":116763.9,"rep_lon":-9.175,"rep_lat":38.702498,"buildings_within":61,"buildings_catchment":279,"building_area_m2":24785.0},"geometry":{"type":"Polygon","coordinates":[[[-9.176293,38.700831],[-9.176076,38.701294],[-9.176293,38.701669],[-9.176293,38.703336],[-9.176212,38.703538],[-9.175916,38.703688],[-9.174816,38.703695],[-9.174625,38.703773],[-9.174556,38.703911],[-9.174627,38.704164],[-9.174623,38.705041],[-9.174545,38.705205],[-9.17439,38.705315],[-9.17417,38.70536],[-9.172504,38.70536],[-9.172239,38.705296],[-9.172042,38.70503],[-9.17204,38.704164],[-9.172098,38.703992],[-9.172403,38.703814],[-9.173519,38.703805],[-9.173697,38.703737],[-9.173777,38.703595],[-9.173707,38.703331],[-9.173739,38.702367],[-9.173917,38.702197],[-9.174363,38.702122],[-9.174528,38.70198],[-9.174558,38.701567],[-9.174761,38.701272],[-9.17454,38.700836],[-9.174543,38.699959],[-9.174703,38.699725],[-9.174962,38.699641],[-9.175837,38.69964],[-9.176184,38.699767],[-9.176291,38.69997],[-9.176293,38.700831]]]}},{"id":"39","type":"Feature","properties":{"id":"low-04","zone_id":"low-04","severity":"low","severity_rank":1,"depth_band":"0.1\u20131 m","area_m2":106381.7,"rep_lon":-9.147083,"rep_lat":38.706248,"buildings_within":37,"buildings_catchment":274,"building_area_m2":38956.7},"geometry":{"type":"Polygon","coordinates":[[[-9.146255,38.704857],[-9.146359,38.705395],[-9.146525,38.705473],[-9.147538,38.705474],[-9.147761,38.705537],[-9.147942,38.705734],[-9.147982,38.706167],[-9.148138,38.706289],[-9.149219,38.706309],[-9.149487,38.706408],[-9.149627,38.706669],[-9.149625,38.70753],[-9.149497,38.707751],[-9.149205,38.707859],[-9.14736,38.707843],[-9.147073,38.707633],[-9.146975,38.70711],[-9.146836,38.707037],[-9.146484,38.706997],[-9.146281,38.706862],[-9.146194,38.70635],[-9.146055,38.706216],[-9.144948,38.706191],[-9.144583,38.706094],[-9.144205,38.706192],[-9.143281,38.706191],[-9.143036,38.706108],[-9.142891,38.705933],[-9.142881,38.704935],[-9.143003,38.704749],[-9.143207,38.704654],[-9.144205,38.704641],[-9.144583,38.704739],[-9.144962,38.704641],[-9.14593,38.704648],[-9.14612,38.704718],[-9.146255,38.704857]]]}},{"id":"40","type":"Feature","properties":{"id":"low-05","zone_id":"low-05","severity":"low","severity_rank":1,"depth_band":"0.1\u20131 m","area_m2":98176.4,"rep_lon":-9.096667,"rep_lat":38.750416,"buildings_within":10,"buildings_catchment":33,"building_area_m2":17819.4},"geometry":{"type":"Polygon","coordinates":[[[-9.09775,38.751136],[-9.097165,38.751243],[-9.097059,38.751389],[-9.097127,38.751664],[-9.097127,38.752497],[-9.097018,38.752733],[-9.09667,38.75286],[-9.095795,38.752859],[-9.095536,38.752775],[-9.095376,38.752541],[-9.095373,38.751664],[-9.095596,38.75125],[-9.095376,38.750874],[-9.095373,38.750003],[-9.095596,38.749583],[-9.095376,38.749207],[-9.095373,38.748336],[-9.095455,38.748129],[-9.095664,38.747998],[-9.096663,38.747973],[-9.09689,38.748018],[-9.097105,38.748223],[-9.097192,38.748724],[-9.097331,38.748796],[-9.097723,38.748852],[-9.097928,38.749034],[-9.09795,38.750909],[-9.09775,38.751136]]]}},{"id":"41","type":"Feature","properties":{"id":"low-06","zone_id":"low-06","severity":"low","severity_rank":1,"depth_band":"0.1\u20131 m","area_m2":96231.2,"rep_lon":-9.228333,"rep_lat":38.6975,"buildings_within":12,"buildings_catchment":99,"building_area_m2":6839.9},"geometry":{"type":"Polygon","coordinates":[[[-9.22796,38.696918],[-9.228025,38.697061],[-9.228191,38.697139],[-9.230038,38.697141],[-9.23032,38.697241],[-9.230449,38.697424],[-9.230525,38.69789],[-9.230664,38.697963],[-9.231056,38.698018],[-9.231271,38.698223],[-9.231291,38.699196],[-9.231163,38.699417],[-9.230871,38.699526],[-9.229818,38.699497],[-9.229578,38.69931],[-9.229534,38.698875],[-9.229412,38.698732],[-9.228281,38.698691],[-9.228013,38.698592],[-9.227884,38.698409],[-9.227861,38.698016],[-9.227746,38.697894],[-9.226615,38.697858],[-9.226337,38.697751],[-9.226209,38.69753],[-9.226207,38.695836],[-9.226347,38.695575],[-9.226615,38.695475],[-9.227496,38.695473],[-9.22783,38.695583],[-9.227958,38.695804],[-9.22796,38.696918]]]}},{"id":"42","type":"Feature","properties":{"id":"low-07","zone_id":"low-07","severity":"low","severity_rank":1,"depth_band":"0.1\u20131 m","area_m2":76666.0,"rep_lon":-9.115417,"rep_lat":38.72125,"buildings_within":8,"buildings_catchment":104,"building_area_m2":4908.6},"geometry":{"type":"Polygon","coordinates":[[[-9.11689,38.720315],[-9.116332,38.720409],[-9.116225,38.720556],[-9.116293,38.720831],[-9.116293,38.721664],[-9.116184,38.721899],[-9.115885,38.722025],[-9.114793,38.722015],[-9.114575,38.722141],[-9.114627,38.723336],[-9.114518,38.723566],[-9.11417,38.723694],[-9.113295,38.723692],[-9.113036,38.723608],[-9.112875,38.723363],[-9.112911,38.722357],[-9.113036,38.722225],[-9.113237,38.722148],[-9.114346,38.722154],[-9.114579,38.722045],[-9.114558,38.720734],[-9.114777,38.720518],[-9.115242,38.720463],[-9.115413,38.720348],[-9.115376,38.719126],[-9.115473,38.718942],[-9.115651,38.718836],[-9.116749,38.718812],[-9.116953,38.718885],[-9.117089,38.719024],[-9.117105,38.72011],[-9.11689,38.720315]]]}},{"id":"43","type":"Feature","properties":{"id":"low-08","zone_id":"low-08","severity":"low","severity_rank":1,"depth_band":"0.1\u20131 m","area_m2":76510.7,"rep_lon":-9.09875,"rep_lat":38.795833,"buildings_within":6,"buildings_catchment":26,"building_area_m2":4033.7},"geometry":{"type":"Polygon","coordinates":[[[-9.09939,38.796148],[-9.098832,38.796243],[-9.098726,38.796389],[-9.098794,38.796664],[-9.098794,38.797497],[-9.098685,38.797733],[-9.098337,38.79786],[-9.097462,38.797859],[-9.097203,38.797775],[-9.097043,38.797541],[-9.09705,38.796591],[-9.097277,38.796352],[-9.097741,38.796296],[-9.097899,38.796201],[-9.097943,38.796072],[-9.097867,38.795538],[-9.097668,38.795366],[-9.096584,38.795354],[-9.096288,38.795205],[-9.096208,38.79503],[-9.096206,38.794164],[-9.096369,38.793892],[-9.096629,38.793808],[-9.09764,38.793824],[-9.097923,38.794024],[-9.097966,38.794462],[-9.098089,38.794606],[-9.099219,38.794642],[-9.099518,38.794767],[-9.099625,38.79497],[-9.099609,38.795933],[-9.09939,38.796148]]]}},{"id":"44","type":"Feature","properties":{"id":"low-09","zone_id":"low-09","severity":"low","severity_rank":1,"depth_band":"0.1\u20131 m","area_m2":63417.6,"rep_lon":-9.202916,"rep_lat":38.694987,"buildings_within":13,"buildings_catchment":67,"building_area_m2":5540.3},"geometry":{"type":"Polygon","coordinates":[[[-9.202922,38.694024],[-9.203008,38.694543],[-9.203164,38.694634],[-9.204219,38.694642],[-9.204526,38.694776],[-9.204627,38.695003],[-9.204625,38.695863],[-9.204545,38.696038],[-9.204377,38.696154],[-9.20417,38.696194],[-9.203281,38.696191],[-9.202917,38.696094],[-9.202504,38.696194],[-9.201629,38.696192],[-9.201405,38.69613],[-9.201258,38.695998],[-9.201207,38.695836],[-9.201207,38.694164],[-9.201288,38.693962],[-9.201615,38.693809],[-9.20264,38.693824],[-9.202922,38.694024]]]}},{"id":"45","type":"Feature","properties":{"id":"low-10","zone_id":"low-10","severity":"low","severity_rank":1,"depth_band":"0.1\u20131 m","area_m2":44376.7,"rep_lon":-9.105833,"rep_lat":38.73,"buildings_within":8,"buildings_catchment":59,"building_area_m2":7749.8},"geometry":{"type":"Polygon","coordinates":[[[-9.104789,38.731154],[-9.104614,38.731029],[-9.104542,38.730863],[-9.104542,38.72997],[-9.104622,38.729795],[-9.104818,38.729669],[-9.105169,38.72963],[-9.105308,38.729557],[-9.105395,38.729057],[-9.105623,38.728846],[-9.106663,38.728806],[-9.106928,38.72887],[-9.107125,38.729137],[-9.107125,38.73003],[-9.107045,38.730205],[-9.106849,38.730331],[-9.106498,38.73037],[-9.106359,38.730443],[-9.106271,38.730943],[-9.106056,38.731148],[-9.10583,38.731194],[-9.104789,38.731154]]]}},{"id":"46","type":"Feature","properties":{"id":"low-11","zone_id":"low-11","severity":"low","severity_rank":1,"depth_band":"0.1\u20131 m","area_m2":44373.6,"rep_lon":-9.101667,"rep_lat":38.739167,"buildings_within":2,"buildings_catchment":65,"building_area_m2":5816.0},"geometry":{"type":"Polygon","coordinates":[[[-9.100623,38.74032],[-9.100455,38.740205],[-9.100375,38.74003],[-9.100375,38.739137],[-9.100455,38.738962],[-9.100651,38.738836],[-9.101002,38.738796],[-9.101141,38.738724],[-9.101229,38.738223],[-9.101456,38.738013],[-9.102496,38.737973],[-9.102761,38.738037],[-9.102958,38.738304],[-9.102958,38.739196],[-9.102878,38.739371],[-9.102683,38.739497],[-9.102331,38.739537],[-9.102192,38.73961],[-9.102105,38.74011],[-9.10189,38.740315],[-9.101663,38.74036],[-9.100623,38.74032]]]}},{"id":"47","type":"Feature","properties":{"id":"low-12","zone_id":"low-12","severity":"low","severity_rank":1,"depth_band":"0.1\u20131 m","area_m2":44357.0,"rep_lon":-9.098333,"rep_lat":38.7875,"buildings_within":5,"buildings_catchment":26,"building_area_m2":5846.5},"geometry":{"type":"Polygon","coordinates":[[[-9.098123,38.788654],[-9.097895,38.788443],[-9.097807,38.787943],[-9.09725,38.787803],[-9.09705,38.787576],[-9.09705,38.786591],[-9.09718,38.786408],[-9.097403,38.786314],[-9.098371,38.786308],[-9.098583,38.786364],[-9.098772,38.786557],[-9.098859,38.787057],[-9.099416,38.787197],[-9.099617,38.787424],[-9.099625,38.788363],[-9.099497,38.788584],[-9.099205,38.788692],[-9.098123,38.788654]]]}},{"id":"48","type":"Feature","properties":{"id":"low-13","zone_id":"low-13","severity":"low","severity_rank":1,"depth_band":"0.1\u20131 m","area_m2":39012.9,"rep_lon":-9.209583,"rep_lat":38.695,"buildings_within":3,"buildings_catchment":44,"building_area_m2":37155.0},"geometry":{"type":"Polygon","coordinates":[[[-9.208997,38.696168],[-9.208788,38.696038],[-9.208709,38.695863],[-9.208739,38.694034],[-9.208881,38.693885],[-9.209084,38.693812],[-9.210169,38.693832],[-9.21036,38.693942],[-9.210458,38.694137],[-9.210427,38.695966],[-9.210297,38.696108],[-9.210083,38.696188],[-9.208997,38.696168]]]}},{"id":"49","type":"Feature","properties":{"id":"low-14","zone_id":"low-14","severity":"low","severity_rank":1,"depth_band":"0.1\u20131 m","area_m2":24913.8,"rep_lon":-9.19875,"rep_lat":38.695417,"buildings_within":3,"buildings_catchment":16,"building_area_m2":1231.7},"geometry":{"type":"Polygon","coordinates":[[[-9.198123,38.696154],[-9.197955,38.696038],[-9.197875,38.695863],[-9.197875,38.69497],[-9.197955,38.694795],[-9.198295,38.694641],[-9.199205,38.694641],[-9.199428,38.694704],[-9.199625,38.69497],[-9.199625,38.695863],[-9.199545,38.696038],[-9.199219,38.696191],[-9.198123,38.696154]]]}},{"id":"50","type":"Feature","properties":{"id":"low-15","zone_id":"low-15","severity":"low","severity_rank":1,"depth_band":"0.1\u20131 m","area_m2":24913.5,"rep_lon":-9.19125,"rep_lat":38.697083,"buildings_within":1,"buildings_catchment":92,"building_area_m2":8932.4},"geometry":{"type":"Polygon","coordinates":[[[-9.190623,38.69782],[-9.190447,38.697696],[-9.190375,38.69753],[-9.190375,38.696637],[-9.190455,38.696462],[-9.190795,38.696308],[-9.191705,38.696308],[-9.191928,38.69637],[-9.192125,38.696637],[-9.192125,38.69753],[-9.192045,38.697705],[-9.191719,38.697858],[-9.190623,38.69782]]]}},{"id":"51","type":"Feature","properties":{"id":"low-16","zone_id":"low-16","severity":"low","severity_rank":1,"depth_band":"0.1\u20131 m","area_m2":24913.4,"rep_lon":-9.235417,"rep_lat":38.697917,"buildings_within":1,"buildings_catchment":19,"building_area_m2":252.2},"geometry":{"type":"Polygon","coordinates":[[[-9.23479,38.698654],[-9.234614,38.698529],[-9.234542,38.698363],[-9.234542,38.69747],[-9.234622,38.697295],[-9.234962,38.697141],[-9.235871,38.697141],[-9.236095,38.697204],[-9.236291,38.69747],[-9.236291,38.698363],[-9.236212,38.698538],[-9.235885,38.698691],[-9.23479,38.698654]]]}},{"id":"52","type":"Feature","properties":{"id":"low-17","zone_id":"low-17","severity":"low","severity_rank":1,"depth_band":"0.1\u20131 m","area_m2":24913.4,"rep_lon":-9.187083,"rep_lat":38.697917,"buildings_within":1,"buildings_catchment":36,"building_area_m2":4126.7},"geometry":{"type":"Polygon","coordinates":[[[-9.186456,38.698654],[-9.186288,38.698538],[-9.186209,38.698363],[-9.186209,38.69747],[-9.186288,38.697295],[-9.186629,38.697141],[-9.187538,38.697141],[-9.187761,38.697204],[-9.187958,38.69747],[-9.187958,38.698363],[-9.187878,38.698538],[-9.187552,38.698691],[-9.186456,38.698654]]]}},{"id":"53","type":"Feature","properties":{"id":"low-18","zone_id":"low-18","severity":"low","severity_rank":1,"depth_band":"0.1\u20131 m","area_m2":24913.2,"rep_lon":-9.184583,"rep_lat":38.69875,"buildings_within":3,"buildings_catchment":35,"building_area_m2":15502.8},"geometry":{"type":"Polygon","coordinates":[[[-9.183956,38.699487],[-9.183781,38.699362],[-9.183709,38.699196],[-9.183709,38.698304],[-9.183788,38.698129],[-9.184129,38.697974],[-9.185038,38.697974],[-9.185261,38.698037],[-9.185458,38.698304],[-9.185458,38.699196],[-9.185378,38.699371],[-9.185052,38.699525],[-9.183956,38.699487]]]}},{"id":"54","type":"Feature","properties":{"id":"low-19","zone_id":"low-19","severity":"low","severity_rank":1,"depth_band":"0.1\u20131 m","area_m2":24913.1,"rep_lon":-9.24875,"rep_lat":38.699583,"buildings_within":4,"buildings_catchment":40,"building_area_m2":3846.3},"geometry":{"type":"Polygon","coordinates":[[[-9.248123,38.70032],[-9.247947,38.700196],[-9.247875,38.70003],[-9.247875,38.699137],[-9.247955,38.698962],[-9.248295,38.698808],[-9.249205,38.698808],[-9.249428,38.69887],[-9.249625,38.699137],[-9.249625,38.70003],[-9.249545,38.700205],[-9.249219,38.700358],[-9.248123,38.70032]]]}},{"id":"55","type":"Feature","properties":{"id":"low-20","zone_id":"low-20","severity":"low","severity_rank":1,"depth_band":"0.1\u20131 m","area_m2":24912.6,"rep_lon":-9.177917,"rep_lat":38.702083,"buildings_within":11,"buildings_catchment":111,"building_area_m2":6765.9},"geometry":{"type":"Polygon","coordinates":[[[-9.17729,38.70282],[-9.177122,38.702705],[-9.177042,38.70253],[-9.177042,38.701637],[-9.177122,38.701462],[-9.177462,38.701308],[-9.178371,38.701308],[-9.178595,38.70137],[-9.178791,38.701637],[-9.178791,38.70253],[-9.178712,38.702705],[-9.178385,38.702858],[-9.17729,38.70282]]]}},{"id":"56","type":"Feature","properties":{"id":"low-21","zone_id":"low-21","severity":"low","severity_rank":1,"depth_band":"0.1\u20131 m","area_m2":24912.5,"rep_lon":-9.16625,"rep_lat":38.702917,"buildings_within":3,"buildings_catchment":123,"building_area_m2":566.2},"geometry":{"type":"Polygon","coordinates":[[[-9.165623,38.703654],[-9.165447,38.703529],[-9.165375,38.703363],[-9.165375,38.70247],[-9.165455,38.702295],[-9.165795,38.702141],[-9.166705,38.702141],[-9.166928,38.702204],[-9.167125,38.70247],[-9.167125,38.703363],[-9.167045,38.703538],[-9.166719,38.703691],[-9.165623,38.703654]]]}},{"id":"57","type":"Feature","properties":{"id":"low-22","zone_id":"low-22","severity":"low","severity_rank":1,"depth_band":"0.1\u20131 m","area_m2":24912.5,"rep_lon":-9.162917,"rep_lat":38.702917,"buildings_within":4,"buildings_catchment":75,"building_area_m2":1205.5},"geometry":{"type":"Polygon","coordinates":[[[-9.162331,38.703668],[-9.16214,38.703558],[-9.162043,38.703374],[-9.162042,38.70247],[-9.162122,38.702295],[-9.162462,38.702141],[-9.163371,38.702141],[-9.163595,38.702204],[-9.163791,38.70247],[-9.163791,38.703363],[-9.163712,38.703538],[-9.163385,38.703691],[-9.162331,38.703668]]]}},{"id":"58","type":"Feature","properties":{"id":"low-23","zone_id":"low-23","severity":"low","severity_rank":1,"depth_band":"0.1\u20131 m","area_m2":24908.4,"rep_lon":-9.112083,"rep_lat":38.72625,"buildings_within":24,"buildings_catchment":101,"building_area_m2":11745.8},"geometry":{"type":"Polygon","coordinates":[[[-9.111456,38.726987],[-9.111288,38.726871],[-9.111208,38.726696],[-9.111208,38.725804],[-9.111288,38.725629],[-9.111629,38.725474],[-9.112538,38.725474],[-9.112761,38.725537],[-9.112958,38.725804],[-9.112958,38.726696],[-9.112878,38.726871],[-9.112552,38.727025],[-9.111456,38.726987]]]}},{"id":"59","type":"Feature","properties":{"id":"low-24","zone_id":"low-24","severity":"low","severity_rank":1,"depth_band":"0.1\u20131 m","area_m2":24906.7,"rep_lon":-9.10125,"rep_lat":38.73625,"buildings_within":1,"buildings_catchment":19,"building_area_m2":2616.6},"geometry":{"type":"Polygon","coordinates":[[[-9.100664,38.737002],[-9.100473,38.736891],[-9.100376,38.736707],[-9.100375,38.735804],[-9.100455,38.735629],[-9.100795,38.735474],[-9.101705,38.735474],[-9.101928,38.735537],[-9.102125,38.735804],[-9.102125,38.736696],[-9.102045,38.736871],[-9.101719,38.737025],[-9.100664,38.737002]]]}},{"id":"60","type":"Feature","properties":{"id":"low-25","zone_id":"low-25","severity":"low","severity_rank":1,"depth_band":"0.1\u20131 m","area_m2":24905.7,"rep_lon":-9.100417,"rep_lat":38.742083,"buildings_within":2,"buildings_catchment":34,"building_area_m2":8023.5},"geometry":{"type":"Polygon","coordinates":[[[-9.099789,38.74282],[-9.099614,38.742696],[-9.099542,38.74253],[-9.099542,38.741637],[-9.099622,38.741462],[-9.099962,38.741308],[-9.100871,38.741308],[-9.101095,38.74137],[-9.101292,38.741637],[-9.101292,38.74253],[-9.101212,38.742705],[-9.100885,38.742858],[-9.099789,38.74282]]]}},{"id":"61","type":"Feature","properties":{"id":"low-26","zone_id":"low-26","severity":"low","severity_rank":1,"depth_band":"0.1\u20131 m","area_m2":24905.0,"rep_lon":-9.097083,"rep_lat":38.74625,"buildings_within":2,"buildings_catchment":18,"building_area_m2":302.4},"geometry":{"type":"Polygon","coordinates":[[[-9.096456,38.746987],[-9.09628,38.746862],[-9.096208,38.746696],[-9.096208,38.745804],[-9.096288,38.745629],[-9.096629,38.745474],[-9.097538,38.745474],[-9.097761,38.745537],[-9.097958,38.745804],[-9.097958,38.746696],[-9.097879,38.746871],[-9.097552,38.747025],[-9.096456,38.746987]]]}},{"id":"62","type":"Feature","properties":{"id":"low-27","zone_id":"low-27","severity":"low","severity_rank":1,"depth_band":"0.1\u20131 m","area_m2":24902.0,"rep_lon":-9.095417,"rep_lat":38.76375,"buildings_within":2,"buildings_catchment":38,"building_area_m2":3519.4},"geometry":{"type":"Polygon","coordinates":[[[-9.09483,38.764502],[-9.09464,38.764391],[-9.094543,38.764207],[-9.094541,38.763304],[-9.094621,38.763129],[-9.094962,38.762974],[-9.095871,38.762974],[-9.096095,38.763037],[-9.096292,38.763304],[-9.096292,38.764196],[-9.096212,38.764371],[-9.095885,38.764525],[-9.09483,38.764502]]]}},{"id":"63","type":"Feature","properties":{"id":"low-28","zone_id":"low-28","severity":"low","severity_rank":1,"depth_band":"0.1\u20131 m","area_m2":24901.6,"rep_lon":-9.095417,"rep_lat":38.76625,"buildings_within":4,"buildings_catchment":14,"building_area_m2":10540.2},"geometry":{"type":"Polygon","coordinates":[[[-9.094789,38.766987],[-9.094621,38.766871],[-9.094541,38.766696],[-9.094541,38.765804],[-9.094621,38.765629],[-9.094962,38.765474],[-9.095871,38.765474],[-9.096095,38.765537],[-9.096292,38.765804],[-9.096292,38.766696],[-9.096212,38.766871],[-9.095885,38.767025],[-9.094789,38.766987]]]}},{"id":"64","type":"Feature","properties":{"id":"low-29","zone_id":"low-29","severity":"low","severity_rank":1,"depth_band":"0.1\u20131 m","area_m2":24898.5,"rep_lon":-9.097083,"rep_lat":38.78375,"buildings_within":44,"buildings_catchment":104,"building_area_m2":5826.5},"geometry":{"type":"Polygon","coordinates":[[[-9.096456,38.784487],[-9.096288,38.784371],[-9.096208,38.784196],[-9.096208,38.783304],[-9.096288,38.783129],[-9.096629,38.782974],[-9.097538,38.782974],[-9.097762,38.783037],[-9.097959,38.783304],[-9.097959,38.784196],[-9.097879,38.784371],[-9.097552,38.784525],[-9.096456,38.784487]]]}},{"id":"65","type":"Feature","properties":{"id":"low-30","zone_id":"low-30","severity":"low","severity_rank":1,"depth_band":"0.1\u20131 m","area_m2":24898.4,"rep_lon":-9.094583,"rep_lat":38.784583,"buildings_within":1,"buildings_catchment":56,"building_area_m2":983.6},"geometry":{"type":"Polygon","coordinates":[[[-9.093997,38.785335],[-9.093806,38.785224],[-9.093709,38.785041],[-9.093708,38.784137],[-9.093788,38.783962],[-9.094129,38.783808],[-9.095038,38.783808],[-9.095262,38.78387],[-9.095459,38.784137],[-9.095459,38.78503],[-9.095379,38.785205],[-9.095052,38.785358],[-9.093997,38.785335]]]}},{"id":"66","type":"Feature","properties":{"id":"low-31","zone_id":"low-31","severity":"low","severity_rank":1,"depth_band":"0.1\u20131 m","area_m2":24897.7,"rep_lon":-9.095417,"rep_lat":38.78875,"buildings_within":4,"buildings_catchment":20,"building_area_m2":1604.2},"geometry":{"type":"Polygon","coordinates":[[[-9.094789,38.789487],[-9.094613,38.789362],[-9.094541,38.789196],[-9.094541,38.788304],[-9.094621,38.788129],[-9.094962,38.787974],[-9.095871,38.787974],[-9.096095,38.788037],[-9.096292,38.788304],[-9.096292,38.789196],[-9.096212,38.789371],[-9.095885,38.789525],[-9.094789,38.789487]]]}},{"id":"67","type":"Feature","properties":{"id":"low-32","zone_id":"low-32","severity":"low","severity_rank":1,"depth_band":"0.1\u20131 m","area_m2":24896.5,"rep_lon":-9.105417,"rep_lat":38.795417,"buildings_within":17,"buildings_catchment":105,"building_area_m2":3024.6},"geometry":{"type":"Polygon","coordinates":[[[-9.104789,38.796154],[-9.104621,38.796038],[-9.104541,38.795863],[-9.104541,38.79497],[-9.104621,38.794795],[-9.104962,38.794641],[-9.105871,38.794641],[-9.106095,38.794704],[-9.106292,38.79497],[-9.106292,38.795863],[-9.106212,38.796038],[-9.105885,38.796191],[-9.104789,38.796154]]]}},{"id":"68","type":"Feature","properties":{"id":"low-33","zone_id":"low-33","severity":"low","severity_rank":1,"depth_band":"0.1\u20131 m","area_m2":24896.4,"rep_lon":-9.102917,"rep_lat":38.79625,"buildings_within":6,"buildings_catchment":31,"building_area_m2":2249.3},"geometry":{"type":"Polygon","coordinates":[[[-9.10233,38.797002],[-9.10214,38.796891],[-9.102043,38.796707],[-9.102041,38.795804],[-9.102121,38.795629],[-9.102462,38.795474],[-9.103371,38.795474],[-9.103595,38.795537],[-9.103792,38.795804],[-9.103792,38.796696],[-9.103712,38.796871],[-9.103385,38.797025],[-9.10233,38.797002]]]}}],"name":"lisbon_hazard_zones_enriched"}